{
    "links": {
        "self": "http://www.neowsapp.com/rest/v1/neo/54093092?api_key=iIulBulltgU6a56xZRHN4H3l9WmuAYTsLGpBGhQ2"
    },
    "id": "54093092",
    "neo_reference_id": "54093092",
    "name": "(2020 WV3)",
    "designation": "2020 WV3",
    "nasa_jpl_url": "http://ssd.jpl.nasa.gov/sbdb.cgi?sstr=54093092",
    "absolute_magnitude_h": 27.958,
    "estimated_diameter": {
        "kilometers": {
            "estimated_diameter_min": 0.0068069879,
            "estimated_diameter_max": 0.0152208876
        },
        "meters": {
            "estimated_diameter_min": 6.8069878686,
            "estimated_diameter_max": 15.2208875962
        },
        "miles": {
            "estimated_diameter_min": 0.0042296649,
            "estimated_diameter_max": 0.0094578181
        },
        "feet": {
            "estimated_diameter_min": 22.3326380788,
            "estimated_diameter_max": 49.9372968612
        }
    },
    "is_potentially_hazardous_asteroid": false,
    "close_approach_data": [
        {
            "close_approach_date": "2020-11-21",
            "close_approach_date_full": "2020-Nov-21 22:48",
            "epoch_date_close_approach": 1605998880000,
            "relative_velocity": {
                "kilometers_per_second": "5.7795522087",
                "kilometers_per_hour": "20806.3879511523",
                "miles_per_hour": "12928.2803355369"
            },
            "miss_distance": {
                "astronomical": "0.0228496785",
                "lunar": "8.8885249365",
                "kilometers": "3418263.233784795",
                "miles": "2124010.281808371"
            },
            "orbiting_body": "Earth"
        },
        {
            "close_approach_date": "2077-09-24",
            "close_approach_date_full": "2077-Sep-24 23:54",
            "epoch_date_close_approach": 3399753240000,
            "relative_velocity": {
                "kilometers_per_second": "19.1342184467",
                "kilometers_per_hour": "68883.1864082374",
                "miles_per_hour": "42801.3332434962"
            },
            "miss_distance": {
                "astronomical": "0.4676966754",
                "lunar": "181.9340067306",
                "kilometers": "69966426.445921398",
                "miles": "43475121.4253273724"
            },
            "orbiting_body": "Earth"
        }
    ],
    "orbital_data": {
        "orbit_id": "1",
        "orbit_determination_date": "2020-11-24 09:42:02",
        "first_observation_date": "2020-11-23",
        "last_observation_date": "2020-11-24",
        "data_arc_in_days": 1,
        "observations_used": 19,
        "orbit_uncertainty": "8",
        "minimum_orbit_intersection": ".0228431",
        "jupiter_tisserand_invariant": "4.120",
        "epoch_osculation": "2459177.5",
        "eccentricity": ".4017910029093464",
        "semi_major_axis": "1.688947765270228",
        "inclination": "5.253675140784804",
        "ascending_node_longitude": "241.5696387744604",
        "orbital_period": "801.720067104537",
        "perihelion_distance": "1.010343748800804",
        "perihelion_argument": "177.6881511044917",
        "aphelion_distance": "2.367551781739653",
        "perihelion_time": "2459174.990643666298",
        "mean_anomaly": "1.126787662176515",
        "mean_motion": ".4490345380778142",
        "equinox": "J2000",
        "orbit_class": {
            "orbit_class_type": "APO",
            "orbit_class_description": "Near-Earth asteroid orbits which cross the Earth’s orbit similar to that of 1862 Apollo",
            "orbit_class_range": "a (semi-major axis) > 1.0 AU; q (perihelion) < 1.017 AU"
        }
    },
    "is_sentry_object": false
}